0 SL-8 DEB
1 27737U 81120J   13282.13258257 -.00000069  00000-0 -87897-3 0  6397
2 27737 082.9326 050.7199 0026381 310.4622 166.1348 12.07997161603468
0 SL-8 DEB
1 27737U 81120J   13285.11466792 -.00000024  00000-0 -37296-3 0  6404
2 27737 082.9588 049.1685 0026735 303.0827 175.8652 12.07997951603820
0 SL-8 DEB
1 27737U 81120J   13287.32979331  .00000030  00000-0  23623-3 0  6412
2 27737 082.9602 047.9591 0026781 297.9066 089.5945 12.07997461604087
0 SL-8 DEB
1 27737U 81120J   13291.07793006  .00000127  00000-0  13215-2 0  6425
2 27737 082.9613 045.9105 0026925 289.7662 189.8668 12.07996974604544
0 SL-8 DEB
1 27737U 81120J   13294.05998966  .00000157  00000-0  16561-2 0  6439
2 27737 082.9612 044.2810 0026986 283.3590 198.4744 12.07997564604902
